H1 CPF 01  gfz 2021 03 24 01  5831 terrasarx 
H2 0702601  6201 31698    2021 03 24 00 59 42 2021 03 29 00 00 42   120 1 1  0 0 0
H9
10 0 59298  49662.000000  0   -3183142.770  -5756107.046  -2057504.255
10 0 59298  49782.000000  0   -3180679.266  -5383506.664  -2900040.893
10 0 59298  49902.000000  0   -3115441.662  -4917667.581  -3691672.930
10 0 59298  50022.000000  0   -2987073.205  -4367899.732  -4418571.551
10 0 59298  50142.000000  0   -2796490.279  -3744954.107  -5068073.690
10 0 59298  50262.000000  0   -2545883.437  -3060804.571  -5628896.530
10 0 59298  50382.000000  0   -2238693.441  -2328411.529  -6091324.791
10 0 59298  50502.000000  0   -1879562.195  -1561472.702  -6447368.949
10 0 59298  50622.000000  0   -1474259.891   -774165.753  -6690891.791
10 0 59298  50742.000000  0   -1029591.525     19111.632  -6817702.597
10 0 59298  50862.000000  0    -553283.957    803999.476  -6825620.701
10 0 59298  50982.000000  0     -53853.893   1566428.730  -6714508.959
10 0 59298  51102.000000  0     459539.624   2292866.584  -6486275.839
10 0 59298  51222.000000  0     977258.758   2970551.993  -6144848.519
10 0 59298  51342.000000  0    1489364.345   3587717.868  -5696112.319
10 0 59298  51462.000000  0    1985802.337   4133795.224  -5147818.596
10 0 59298  51582.000000  0    2456598.458   4599597.286  -4509462.746
10 0 59298  51702.000000  0    2892057.162   4977480.966  -3792130.565
10 0 59298  51822.000000  0    3282960.497   5261480.553  -3008314.587
10 0 59298  51942.000000  0    3620764.024   5447411.444  -2171703.108
10 0 59298  52062.000000  0    3897784.244   5532939.688  -1296943.402
10 0 59298  52182.000000  0    4107372.350   5517616.064   -399384.012
10 0 59298  52302.000000  0    4244069.946   5402872.519    505199.604
10 0 59298  52422.000000  0    4303742.590   5191979.771   1400889.777
10 0 59298  52542.000000  0    4283686.339   4889967.675   2271913.930
10 0 59298  52662.000000  0    4182707.806   4503512.962   3102931.129
10 0 59298  52782.000000  0    4001170.887   4040790.762   3879311.681
10 0 59298  52902.000000  0    3741011.520   3511298.240   4587398.560
10 0 59298  53022.000000  0    3405722.656   2925655.727   5214750.257
10 0 59298  53142.000000  0    3000304.096   2295387.872   5750361.083
10 0 59298  53262.000000  0    2531183.459   1632691.246   6184848.107
10 0 59298  53382.000000  0    2006111.083    950194.676   6510610.381
10 0 59298  53502.000000  0    1434028.282    260716.410   6721955.157
10 0 59298  53622.000000  0     824912.634   -422975.474   6815191.853
10 0 59298  53742.000000  0     189603.021  -1088399.352   6788693.810
10 0 59298  53862.000000  0    -460393.606  -1723588.010   6642924.492
10 0 59298  53982.000000  0   -1113110.593  -2317303.755   6380429.190
10 0 59298  54102.000000  0   -1756340.546  -2859237.095   6005791.724
10 0 59298  54222.000000  0   -2377861.093  -3340186.358   5525560.116
10 0 59298  54342.000000  0   -2965668.053  -3752217.843   4948140.423
10 0 59298  54462.000000  0   -3508211.770  -4088801.779   4283655.571
10 0 59298  54582.000000  0   -3994628.027  -4344920.155   3543771.122
10 0 59298  54702.000000  0   -4414959.002  -4517145.301   2741492.604
10 0 59298  54822.000000  0   -4760361.030  -4603687.888   1890937.362
10 0 59298  54942.000000  0   -5023294.221  -4604411.896   1007082.404
10 0 59298  55062.000000  0   -5197687.845  -4520815.243    105494.519
10 0 59298  55182.000000  0   -5279077.752  -4355977.155   -797951.896
10 0 59298  55302.000000  0   -5264711.936  -4114473.337  -1687363.882
10 0 59298  55422.000000  0   -5153620.465  -3802259.971  -2547119.046
10 0 59298  55542.000000  0   -4946648.180  -3426530.709  -3362146.140
10 0 59298  55662.000000  0   -4646451.344  -2995551.754  -4118191.877
10 0 59298  55782.000000  0   -4257458.987  -2518479.050  -4802069.702
10 0 59298  55902.000000  0   -3785799.532  -2005161.989  -5401885.594
10 0 59298  56022.000000  0   -3239195.832  -1465938.860  -5907237.336
10 0 59298  56142.000000  0   -2626831.639   -911428.187  -6309384.892
10 0 59298  56262.000000  0   -1959192.010   -352320.774  -6601390.468
10 0 59298  56382.000000  0   -1247880.683    200823.379  -6778226.221
10 0 59298  56502.000000  0    -505420.178    737769.294  -6836850.295
10 0 59298  56622.000000  0     254964.095   1248791.554  -6776253.610
10 0 59298  56742.000000  0    1019572.687   1724845.240  -6597475.574
10 0 59298  56862.000000  0    1774473.574   2157722.875  -6303590.536
10 0 59298  56982.000000  0    2505751.047   2540194.469  -5899660.319
10 0 59298  57102.000000  0    3199758.834   2866128.254  -5392655.429
10 0 59298  57222.000000  0    3843372.030   3130589.962  -4791345.654
10 0 59298  57342.000000  0    4424237.294   3329920.821  -4106160.637
10 0 59298  57462.000000  0    4931014.980   3461790.737  -3349018.701
10 0 59298  57582.000000  0    5353606.617   3525225.223  -2533126.521
10 0 59298  57702.000000  0    5683363.609   3520606.640  -1672753.495
10 0 59298  57822.000000  0    5913272.268   3449647.178   -782982.056
10 0 59298  57942.000000  0    6038108.619   3315334.117    120559.774
10 0 59298  58062.000000  0    6054560.217   3121848.556   1021978.848
10 0 59298  58182.000000  0    5961309.910   2874459.117   1905404.632
10 0 59298  58302.000000  0    5759079.018   2579394.458   2755277.111
10 0 59298  58422.000000  0    5450630.102   2243696.465   3556629.895
10 0 59298  58542.000000  0    5040726.870   1875057.818   4295360.786
10 0 59298  58662.000000  0    4536053.535   1481649.113   4958483.161
10 0 59298  58782.000000  0    3945099.352   1071939.613   5534353.816
10 0 59298  58902.000000  0    3278006.889    654516.041   6012877.513
10 0 59298  59022.000000  0    2546387.999    237903.433   6385677.687
10 0 59298  59142.000000  0    1763116.805   -169606.713   6646235.878
10 0 59298  59262.000000  0     942100.280   -560119.880   6790001.022
10 0 59298  59382.000000  0      98028.436   -926290.726   6814464.780
10 0 59298  59502.000000  0    -753889.097  -1261460.352   6719201.481
10 0 59298  59622.000000  0   -1598196.443  -1559777.429   6505874.264
10 0 59298  59742.000000  0   -2419470.214  -1816300.061   6178206.540
10 0 59298  59862.000000  0   -3202599.198  -2027077.068   5741922.390
10 0 59298  59982.000000  0   -3933065.586  -2189210.109   5204655.099
10 0 59298  60102.000000  0   -4597219.564  -2300893.952   4575818.638
10 0 59298  60222.000000  0   -5182540.705  -2361433.196   3866446.871
10 0 59298  60342.000000  0   -5677880.978  -2371234.638   3089002.804
10 0 59298  60462.000000  0   -6073685.176  -2331776.450   2257161.519
10 0 59298  60582.000000  0   -6362184.807  -2245555.694   1385568.679
10 0 59298  60702.000000  0   -6537558.582  -2116013.243    489576.021
10 0 59298  60822.000000  0   -6596052.967  -1947437.802   -415036.547
10 0 59298  60942.000000  0   -6536062.997  -1744851.999  -1312348.066
10 0 59298  61062.000000  0   -6358168.060  -1513883.712  -2186586.024
10 0 59298  61182.000000  0   -6065123.609  -1260626.263  -3022410.694
10 0 59298  61302.000000  0   -5661809.793   -991491.133  -3805188.771
10 0 59298  61422.000000  0   -5155139.077   -713056.510  -4521250.934
10 0 59298  61542.000000  0   -4553925.480   -431915.389  -5158128.261
10 0 59298  61662.000000  0   -3868718.907   -154527.648  -5704763.393
10 0 59298  61782.000000  0   -3111609.195    112921.000  -6151692.961
10 0 59298  61902.000000  0   -2296005.934    364650.155  -6491199.200
10 0 59298  62022.000000  0   -1436398.397    595402.888  -6717431.773
10 0 59298  62142.000000  0    -548098.841    800549.779  -6826498.262
10 0 59298  62262.000000  0     353025.356    976178.186  -6816522.579
10 0 59298  62382.000000  0    1250826.926   1119163.632  -6687674.293
10 0 59298  62502.000000  0    2129161.997   1227224.170  -6442168.548
10 0 59298  62622.000000  0    2972174.936   1298956.767  -6084231.940
10 0 59298  62742.000000  0    3764580.535   1333854.305  -5620036.283
10 0 59298  62862.000000  0    4491938.496   1332303.194  -5057602.469
10 0 59298  62982.000000  0    5140919.286   1295562.075  -4406674.104
10 0 59298  63102.000000  0    5699554.754   1225721.553  -3678558.890
10 0 59298  63222.000000  0    6157467.465   1125645.160  -2885941.047
10 0 59298  63342.000000  0    6506074.949    998892.662  -2042667.009
10 0 59298  63462.000000  0    6738763.718    849627.538  -1163505.523
10 0 59298  63582.000000  0    6851026.259    682509.634   -263886.582
10 0 59298  63702.000000  0    6840556.774    502576.416    640374.574
10 0 59298  63822.000000  0    6707304.592    315115.876   1533362.110
10 0 59298  63942.000000  0    6453482.940    125532.665   2399348.947
10 0 59298  64062.000000  0    6083530.155    -60787.300   3223083.200
10 0 59298  64182.000000  0    5604026.399   -238611.641   3990064.076
10 0 59298  64302.000000  0    5023567.989   -402990.104   4686801.020
10 0 59298  64422.000000  0    4352604.717   -549376.107   5301053.917
10 0 59298  64542.000000  0    3603239.905   -673737.413   5822046.966
10 0 59298  64662.000000  0    2789003.075   -772652.447   6240653.191
10 0 59298  64782.000000  0    1924598.705   -843391.814   6549548.779
10 0 59298  64902.000000  0    1025636.458   -883983.060   6743336.151
10 0 59298  65022.000000  0     108345.453   -893257.570   6818632.953
10 0 59298  65142.000000  0    -810719.406   -870878.426   6774126.014
10 0 59298  65262.000000  0   -1714975.005   -817349.486   6610591.993
10 0 59298  65382.000000  0   -2588107.622   -734004.579   6330884.290
10 0 59298  65502.000000  0   -3414365.998   -622977.529   5939887.198
10 0 59298  65622.000000  0   -4178847.577   -487153.364   5444437.225
10 0 59298  65742.000000  0   -4867772.668   -330102.023   4853210.163
10 0 59298  65862.000000  0   -5468740.110   -155995.163   4176574.191
10 0 59298  65982.000000  0   -5970959.159     30492.206   3426411.585
10 0 59298  66102.000000  0   -6365452.292    224293.403   2615912.343
99
